YAOGAN-43 01D           
1 60461U 24148D   26068.43560480  .00010676  00000+0  37766-3 0  9999
2 60461  35.0010  61.7102 0002556 326.2473  33.8080 15.28369377 87008
STARLINK-33798          
1 63449U 25069S   26068.51509559  .00025718  00000+0  87810-3 0  9998
2 63449  53.1588 143.5823 0001345 106.1382 253.9767 15.30175783 53106
